LAOSAT 1                
1 41034U 15067A   26191.80619311 -.00000334  00000+0  00000+0 0  9998
2 41034   0.0393 169.3702 0002232 249.1530 288.9515  1.00270654 39094
TELSTAR 12V             
1 41036U 15068A   26191.63525344 -.00000109  00000+0  00000+0 0  9994
2 41036   0.0145 339.7411 0002107 138.5767  23.9391  1.00271950 38868
ELEKTRO-L 2             
1 41105U 15074A   26190.92243847 -.00000112  00000+0  00000+0 0  9998
2 41105   6.7473  70.2440 0000797 224.6641 310.5088  1.00272734 38737
EXPRESS-AMU1            
1 41191U 15082A   26191.85531087  .00000164  00000+0  00000+0 0  9997
2 41191   0.0164  50.8135 0002332  69.0425 152.9066  1.00271375 38508
GAOFEN-4                
1 41194U 15083A   26191.87299843 -.00000326  00000+0  00000+0 0  9995
2 41194   0.4148  83.8744 0004450 120.3715 144.5137  1.00269229 38764
BELINTERSAT-1           
1 41238U 16001A   26191.43454873  .00000117  00000+0  00000+0 0  9990
2 41238   0.0274  97.7629 0001759 336.9617  61.5537  1.00272533 38472
IRNSS-1E                
1 41241U 16003A   26191.58253116 -.00000316  00000+0  00000+0 0  9991
2 41241  33.2836  59.4106 0019285 178.7449  11.7354  1.00267797 38314
EUTELSAT 9B             
1 41310U 16005A   26191.63993345  .00000071  00000+0  00000+0 0  9998
2 41310   0.0252  48.3636 0001080  46.9352  72.6370  1.00269174 38352
SES-9                   
1 41380U 16013A   26191.55833601 -.00000335  00000+0  00000+0 0  9997
2 41380   0.0155 330.4476 0002151 137.1658 130.1726  1.00271757 37679
EUTELSAT 65 WEST A      
1 41382U 16014A   26191.76785339 -.00000267  00000+0  00000+0 0  9991
2 41382   0.0680 314.3014 0002051 157.6516  27.9805  1.00270858 37764
IRNSS-1F                
1 41384U 16015A   26191.85531087  .00000161  00000+0  00000+0 0  9995
2 41384   5.4065  96.2439 0017396 183.5328 349.5169  1.00279106 37903
BEIDOU-2 IGSO-6         
1 41434U 16021A   26177.11016981 -.00000145  00000+0  00000+0 0  9995
2 41434  60.2385  37.9495 0057558 231.0163 137.2672  1.00258926 37578
IRNSS-1G                
1 41469U 16027A   26191.66388205 -.00000330  00000+0  00000+0 0  9992
2 41469   5.2518  96.9305 0005973   9.4769 190.8393  1.00273408 37411
JCSAT-2B                
1 41471U 16028A   26191.69141898 -.00000156  00000+0  00000+0 0  9990
2 41471   0.0172  40.2361 0000779  79.5746 211.7077  1.00269637 37364
THAICOM 8               
1 41552U 16031A   26191.86762507 -.00000112  00000+0  00000+0 0  9991
2 41552   0.0669  43.7824 0003027  29.2983 246.5407  1.00270700 36951
INTELSAT 31 (IS-31)     
1 41581U 16035A   26191.26289811 -.00000140  00000+0  00000+0 0  9994
2 41581   0.0186 278.5787 0001013 347.5471  21.6525  1.00271183 36919
BEIDOU-2 G7             
1 41586U 16037A   26191.80263977 -.00000345  00000+0  00000+0 0  9993
2 41586   1.7755  69.5190 0006003   7.0558 251.4830  1.00263892  7129
ABS-2A (MONGOLSAT-1)    
1 41588U 16038A   26191.51042017 -.00000073  00000+0  00000+0 0  9992
2 41588   0.0181  18.7772 0001269  31.7482 136.3682  1.00268654 36946
EUTELSAT 117 WEST B     
1 41589U 16038B   26191.25856476 -.00000001  00000+0  00000+0 0  9997
2 41589   0.0062 158.6562 0000353 302.6110 163.0106  1.00273613 36890
BRISAT                  
1 41591U 16039A   26191.46310703 -.00000186  00000+0  00000+0 0  9996
2 41591   0.0157 348.7494 0001891 121.4312 135.4228  1.00270735 36848
ECHOSTAR 18             
1 41592U 16039B   26191.15569564 -.00000271  00000+0  00000+0 0  9999
2 41592   0.0028 107.9353 0001429  17.2369 157.5991  1.00268777 36852
MUOS-5                  
1 41622U 16041A   26191.68832218 -.00000107  00000+0  00000+0 0  9991
2 41622   2.1551 302.0999 0199325 260.6556 228.5005  1.00271394 37326
TIANTONG-1 1            
1 41725U 16048A   26191.82455689 -.00000312  00000+0  00000+0 0  9999
2 41725   3.8930  43.5855 0004992  56.8584 226.5405  1.00270858 36503
JCSAT-16                
1 41729U 16050A   26191.80922647 -.00000243  00000+0  00000+0 0  9990
2 41729   0.0178  37.9405 0000830  88.1300 237.9178  1.00269437 36301
USA 270                 
1 41744U 16052A   26189.45328858 -.00000339  00000+0  00000+0 0  9997
2 41744   4.2508  76.9127 0009267 101.4411  37.4334  1.00271003 28344
USA 271                 
1 41745U 16052B   26188.73473646 -.00000278  00000+0  00000+0 0  9996
2 41745   4.2217  76.9947 0010955 166.6184  44.5685  1.00271212 28124
INTELSAT 36 (IS-36)     
1 41747U 16053A   26191.17525213 -.00000013  00000+0  00000+0 0  9996
2 41747   0.0102 354.9716 0002514 346.8192  77.8966  1.00268599 36189
INSAT-3DR               
1 41752U 16054A   26191.86675838 -.00000069  00000+0  00000+0 0  9999
2 41752   0.0584  88.8531 0010612 181.6071  44.3607  1.00271991 36053
GSAT-18                 
1 41793U 16060A   26191.86667171 -.00000068  00000+0  00000+0 0  9991
2 41793   0.0239  88.9656 0005295 348.7372 237.0496  1.00271109 35760
SKY MUSTER 2 (NBN1B)    
1 41794U 16060B   26191.53453613  .00000000  00000+0  00000+0 0  9995
2 41794   0.0232  27.5334 0001330  87.5741 150.5745  1.00269981 35750
HIMAWARI-9              
1 41836U 16064A   26191.28447437  .00000000  00000+0  00000+0 0  9995
2 41836   0.0237  41.9433 0002433 138.5658 350.8758  1.00270260 35448
