OBJECT_NAME,OBJECT_ID,EPOCH,MEAN_MOTION,ECCENTRICITY,INCLINATION,RA_OF_ASC_NODE,ARG_OF_PERICENTER,MEAN_ANOMALY,EPHEMERIS_TYPE,CLASSIFICATION_TYPE,NORAD_CAT_ID,ELEMENT_SET_NO,REV_AT_EPOCH,BSTAR,MEAN_MOTION_DOT,MEAN_MOTION_DDOT
LAOSAT 1,2015-067A,2026-07-10T19:20:55.084704,1.00270654,.0002232,0.0393,169.3702,249.1530,288.9515,0,U,41034,999,3909,0,-.334E-5,0
TELSTAR 12V,2015-068A,2026-07-10T15:14:45.897216,1.00271950,.0002107,0.0145,339.7411,138.5767,23.9391,0,U,41036,999,3886,0,-.109E-5,0
ELEKTRO-L 2,2015-074A,2026-07-09T22:08:18.683808,1.00272734,.00007973,6.7473,70.2440,224.6641,310.5088,0,U,41105,999,3873,0,-.112E-5,0
EXPRESS-AMU1,2015-082A,2026-07-10T20:31:38.859168,1.00271375,.0002332,0.0164,50.8135,69.0425,152.9066,0,U,41191,999,3850,0,.164E-5,0
GAOFEN-4,2015-083A,2026-07-10T20:57:07.064352,1.00269229,.000445,0.4148,83.8744,120.3715,144.5137,0,U,41194,999,3876,0,-.326E-5,0
BELINTERSAT-1,2016-001A,2026-07-10T10:25:45.010272,1.00272533,.00017591,0.0274,97.7629,336.9617,61.5537,0,U,41238,999,3847,0,.117E-5,0
IRNSS-1E,2016-003A,2026-07-10T13:58:50.692224,1.00267797,.0019285,33.2836,59.4106,178.7449,11.7354,0,U,41241,999,3831,0,-.316E-5,0
EUTELSAT 9B,2016-005A,2026-07-10T15:21:30.250080,1.00269174,.000108,0.0252,48.3636,46.9352,72.6370,0,U,41310,999,3835,0,.71E-6,0
SES-9,2016-013A,2026-07-10T13:24:00.231264,1.00271757,.0002151,0.0155,330.4476,137.1658,130.1726,0,U,41380,999,3767,0,-.335E-5,0
EUTELSAT 65 WEST A,2016-014A,2026-07-10T18:25:42.532896,1.00270858,.0002051,0.0680,314.3014,157.6516,27.9805,0,U,41382,999,3776,0,-.267E-5,0
IRNSS-1F,2016-015A,2026-07-10T20:31:38.859168,1.00279106,.0017396,5.4065,96.2439,183.5328,349.5169,0,U,41384,999,3790,0,.161E-5,0
BEIDOU-2 IGSO-6,2016-021A,2026-06-26T02:38:38.671584,1.00258926,.0057558,60.2385,37.9495,231.0163,137.2672,0,U,41434,999,3757,0,-.145E-5,0
IRNSS-1G,2016-027A,2026-07-10T15:55:59.409120,1.00273408,.0005973,5.2518,96.9305,9.4769,190.8393,0,U,41469,999,3741,0,-.33E-5,0
JCSAT-2B,2016-028A,2026-07-10T16:35:38.599872,1.00269637,.0000779,0.0172,40.2361,79.5746,211.7077,0,U,41471,999,3736,0,-.156E-5,0
THAICOM 8,2016-031A,2026-07-10T20:49:22.806048,1.00270700,.0003027,0.0669,43.7824,29.2983,246.5407,0,U,41552,999,3695,0,-.112E-5,0
INTELSAT 31 (IS-31),2016-035A,2026-07-10T06:18:34.396704,1.00271183,.00010139,0.0186,278.5787,347.5471,21.6525,0,U,41581,999,3691,0,-.14E-5,0
BEIDOU-2 G7,2016-037A,2026-07-10T19:15:48.076128,1.00263892,.0006003,1.7755,69.5190,7.0558,251.4830,0,U,41586,999,712,0,-.345E-5,0
ABS-2A (MONGOLSAT-1),2016-038A,2026-07-10T12:15:00.302688,1.00268654,.00012692,0.0181,18.7772,31.7482,136.3682,0,U,41588,999,3694,0,-.73E-6,0
EUTELSAT 117 WEST B,2016-038B,2026-07-10T06:12:19.995264,1.00273613,.0000353,0.0062,158.6562,302.6110,163.0106,0,U,41589,999,3689,0,-.1E-7,0
BRISAT,2016-039A,2026-07-10T11:06:52.447392,1.00270735,.0001891,0.0157,348.7494,121.4312,135.4228,0,U,41591,999,3684,0,-.186E-5,0
ECHOSTAR 18,2016-039B,2026-07-10T03:44:12.103296,1.00268777,.00014295,0.0028,107.9353,17.2369,157.5991,0,U,41592,999,3685,0,-.271E-5,0
MUOS-5,2016-041A,2026-07-10T16:31:11.036352,1.00271394,.0199325,2.1551,302.0999,260.6556,228.5005,0,U,41622,999,3732,0,-.107E-5,0
TIANTONG-1 1,2016-048A,2026-07-10T19:47:21.715296,1.00270858,.0004992,3.8930,43.5855,56.8584,226.5405,0,U,41725,999,3650,0,-.312E-5,0
JCSAT-16,2016-050A,2026-07-10T19:25:17.167008,1.00269437,.000083,0.0178,37.9405,88.1300,237.9178,0,U,41729,999,3630,0,-.243E-5,0
USA 270,2016-052A,2026-07-08T10:52:44.133312,1.00271003,.0009267,4.2508,76.9127,101.4411,37.4334,0,U,41744,999,2834,0,-.339E-5,0
USA 271,2016-052B,2026-07-07T17:38:01.230144,1.00271212,.0010955,4.2217,76.9947,166.6184,44.5685,0,U,41745,999,2812,0,-.278E-5,0
INTELSAT 36 (IS-36),2016-053A,2026-07-10T04:12:21.784032,1.00268599,.00025144,0.0102,354.9716,346.8192,77.8966,0,U,41747,999,3618,0,-.13E-6,0
INSAT-3DR,2016-054A,2026-07-10T20:48:07.924032,1.00271991,.0010612,0.0584,88.8531,181.6071,44.3607,0,U,41752,999,3605,0,-.69E-6,0
GSAT-18,2016-060A,2026-07-10T20:48:00.435744,1.00271109,.0005295,0.0239,88.9656,348.7372,237.0496,0,U,41793,999,3576,0,-.68E-6,0
SKY MUSTER 2 (NBN1B),2016-060B,2026-07-10T12:49:43.921632,1.00269981,.00013308,0.0232,27.5334,87.5741,150.5745,0,U,41794,999,3575,0,0,0
HIMAWARI-9,2016-064A,2026-07-10T06:49:38.585568,1.00270260,.00024335,0.0237,41.9433,138.5658,350.8758,0,U,41836,999,3544,0,0,0
